NORAD_CAT_ID,OBJECT_NAME,OBJECT_TYPE,EPOCH,MEAN_MOTION,ECCENTRICITY,INCLINATION,RA_OF_ASC_NODE,ARG_OF_PERICENTER,MEAN_ANOMALY,BSTAR,MEAN_MOTION_DOT,MEAN_MOTION_DDOT,TLE_LINE0,TLE_LINE1,TLE_LINE2,SEMIMAJOR_AXIS,PERIOD,APOGEE,PERIGEE,DECAYED
53707.0,STARLINK-4667,PAYLOAD,2022-09-12 14:00:01,15.79382513,9.36e-05,53.2172,236.0919,96.3541,254.4448,-0.0073062,-0.01197112,0.0,0 STARLINK-4667,1 53707U 22107H   22255.58334491 -.01197112  00000-0 -73062-2 0  9991,2 53707  53.2172 236.0919 0000936  96.3541 254.4448 15.79382513  1309,6710.326,91.175,332.819,331.5630000000001,0.0
53707.0,STARLINK-4667,PAYLOAD,2022-09-12 22:00:00,15.7855937,0.0001032999999999,53.2163,234.4269,73.8362,12.7591,-0.007953,-0.01248211,0.0,0 STARLINK-4667,1 53707U 22107H   22255.91667824 -.01248211  00000-0 -79530-2 0  9990,2 53707  53.2163 234.4269 0001033  73.8362  12.7591 15.78559370  1309,6712.659000000002,91.222,335.217,333.83,0.0
53707.0,STARLINK-4667,PAYLOAD,2022-09-13 06:00:00,15.77646103,0.0001244,53.2174,232.7675,72.4735,108.9274,-0.0078935,-0.011954,0.0,0 STARLINK-4667,1 53707U 22107H   22256.25001157 -.01195400  00000-0 -78935-2 0  9998,2 53707  53.2174 232.7675 0001244  72.4735 108.9274 15.77646103  1403,6715.249,91.275,337.949,336.279,0.0
53707.0,STARLINK-4667,PAYLOAD,2022-09-13 14:00:01,15.76779496,0.0001054999999999,53.2174,231.1072,79.2134,195.9247,-0.0082239,-0.01197471,0.0,0 STARLINK-4667,1 53707U 22107H   22256.58334491 -.01197471  00000-0 -82239-2 0  9996,2 53707  53.2174 231.1072 0001055  79.2134 195.9247 15.76779496  1301,6717.709,91.325,340.283,338.865,0.0
53707.0,STARLINK-4667,PAYLOAD,2022-09-13 20:00:01,15.76125669,0.0001095999999999,53.2174,229.8628,83.991,170.767,-0.0084286,-0.01192616,0.0,0 STARLINK-4667,1 53707U 22107H   22256.83334491 -.01192616  00000-0 -84286-2 0  9994,2 53707  53.2174 229.8628 0001096  83.9910 170.7670 15.76125669  1499,6719.566999999999,91.363,342.168,340.695,0.0
53707.0,STARLINK-4667,PAYLOAD,2022-09-13 22:00:00,15.75907733,9.86e-05,53.2177,229.4488,81.7815,286.0528,-0.0084928,-0.01190344,0.0,0 STARLINK-4667,1 53707U 22107H   22256.91667824 -.01190344  00000-0 -84928-2 0  9991,2 53707  53.2177 229.4488 0000986  81.7815 286.0528 15.75907733  1301,6720.186,91.376,342.714,341.389,0.0
53707.0,STARLINK-4667,PAYLOAD,2022-09-14 14:00:01,15.74099414,0.0001308,53.2166,226.1422,84.2792,105.8065,-0.0070084,-0.00917939,0.0,0 STARLINK-4667,1 53707U 22107H   22257.58334491 -.00917939  00000-0 -70084-2 0  9990,2 53707  53.2166 226.1422 0001308  84.2792 105.8065 15.74099414  1617,6725.331999999999,91.481,348.077,346.31699999999995,0.0
53707.0,STARLINK-4667,PAYLOAD,2022-09-14 20:00:01,15.73442445,0.0001233,53.2172,224.9024,88.5265,78.8506,-0.0025252,-0.00344454,0.0,0 STARLINK-4667,1 53707U 22107H   22257.83334491 -.00344454  00000-0 -25252-2 0  9991,2 53707  53.2172 224.9024 0001233  88.5265  78.8506 15.73442445  1655,6727.204000000002,91.519,349.899,348.24,0.0
53707.0,STARLINK-4667,PAYLOAD,2022-09-14 22:00:00,15.73294362,0.0001369,53.2174,224.4899,93.3983,186.2993,-0.0010257,-0.0014273,0.0,0 STARLINK-4667,1 53707U 22107H   22257.91667824 -.00142730  00000-0 -10257-2 0  9991,2 53707  53.2174 224.4899 0001369  93.3983 186.2993 15.73294362  1302,6727.626,91.528,350.412,348.57,0.0
53707.0,STARLINK-4667,PAYLOAD,2022-09-15 04:00:00,15.73202823,0.0001122,53.2173,223.2546,98.094,158.3472,1.7780999999999998e-05,1.877e-05,0.0,0 STARLINK-4667,1 53707U 22107H   22258.16667824  .00001877  00000-0  17781-4 0  9994,2 53707  53.2173 223.2546 0001122  98.0940 158.3472 15.73202823  1706,6727.887,91.533,350.50699999999995,348.997,0.0
53707.0,STARLINK-4667,PAYLOAD,2022-09-15 14:00:01,15.73288691,8.379999999999999e-05,53.2136,221.1917,103.8788,353.7896,-0.00082909,-0.00115821,0.0,0 STARLINK-4667,1 53707U 22107H   22258.58334491 -.00115821  00000-0 -82909-3 0  9991,2 53707  53.2136 221.1917 0000838 103.8788 353.7896 15.73288691  1306,6727.642,91.528,350.071,348.944,0.0
53707.0,STARLINK-4667,PAYLOAD,2022-09-15 22:00:00,15.73187261,9.79e-05,53.2142,219.5414,112.879,73.7761,0.00015607,0.00021327,0.0,0 STARLINK-4667,1 53707U 22107H   22258.91667824  .00021327  00000-0  15607-3 0  9993,2 53707  53.2142 219.5414 0000979 112.8790  73.7761 15.73187261  1306,6727.931,91.534,350.455,349.13800000000015,0.0
53707.0,STARLINK-4667,PAYLOAD,2022-09-16 00:00:00,15.73206257,9.33e-05,53.2143,219.1296,109.4324,189.4489,-0.0001708,-0.00024526,0.0,0 STARLINK-4667,1 53707U 22107H   22259.00001157 -.00024526  00000-0 -17080-3 0  9998,2 53707  53.2143 219.1296 0000933 109.4324 189.4489 15.73206257  1833,6727.877,91.533,350.37,349.115,0.0
53707.0,STARLINK-4667,PAYLOAD,2022-09-16 14:00:01,15.73132976,0.000129,53.2141,216.2432,105.589,258.89,-0.00011661,-0.00016905,0.0,0 STARLINK-4667,1 53707U 22107H   22259.58334491 -.00016905  00000-0 -11661-3 0  9992,2 53707  53.2141 216.2432 0001290 105.5890 258.8900 15.73132976  1300,6728.0859999999975,91.537,350.819,349.083,0.0
53707.0,STARLINK-4667,PAYLOAD,2022-09-16 16:00:00,15.73103389,0.0001311,53.2141,215.8304,108.7809,7.9161,0.00037524,0.00052152,0.0,0 STARLINK-4667,1 53707U 22107H   22259.66667824  .00052152  00000-0  37524-3 0  9998,2 53707  53.2141 215.8304 0001311 108.7809   7.9161 15.73103389  1940,6728.170999999999,91.539,350.918,349.154,0.0
53707.0,STARLINK-4667,PAYLOAD,2022-09-16 22:00:00,15.73142131,0.0001443,53.2143,214.5932,110.7923,342.5252,0.00041226,0.00057491,0.0,0 STARLINK-4667,1 53707U 22107H   22259.91667824  .00057491  00000-0  41226-3 0  9991,2 53707  53.2143 214.5932 0001443 110.7923 342.5252 15.73142131  1308,6728.06,91.537,350.896,348.954,0.0
53707.0,STARLINK-4667,PAYLOAD,2022-09-17 14:00:01,15.73232556,0.0001179,53.2143,211.2948,110.7834,160.3357,-0.00052542,-0.00073816,0.0,0 STARLINK-4667,1 53707U 22107H   22260.58334491 -.00073816  00000-0 -52542-3 0  9991,2 53707  53.2143 211.2948 0001179 110.7834 160.3357 15.73232556  1309,6727.802,91.531,350.461,348.874,0.0
53707.0,STARLINK-4667,PAYLOAD,2022-09-17 22:00:00,15.73200452,0.0001157,53.2143,209.645,116.4506,243.5981,0.00028355,0.00039362,0.0,0 STARLINK-4667,1 53707U 22107H   22260.91667824  .00039362  00000-0  28355-3 0  9998,2 53707  53.2143 209.6450 0001157 116.4506 243.5981 15.73200452  2143,6727.894,91.533,350.537,348.98,0.0
53707.0,STARLINK-4667,PAYLOAD,2022-09-18 14:00:01,15.73223608,0.0001269,53.2136,206.3459,112.7097,65.3406,0.00014144,0.00019296,0.0,0 STARLINK-4667,1 53707U 22107H   22261.58335648  .00019296  00000-0  14144-3 0  9993,2 53707  53.2136 206.3459 0001269 112.7097  65.3406 15.73223608  1303,6727.828,91.532,350.547,348.839,0.0
53707.0,STARLINK-4667,PAYLOAD,2022-09-18 22:00:00,15.73280054,0.0001514,53.2138,204.6962,115.9379,151.0043,-0.00048316,-0.00068115,0.0,0 STARLINK-4667,1 53707U 22107H   22261.91667824 -.00068115  00000-0 -48316-3 0  9998,2 53707  53.2138 204.6962 0001514 115.9379 151.0043 15.73280054  2293,6727.667,91.529,350.551,348.51300000000015,0.0
53707.0,STARLINK-4667,PAYLOAD,2022-09-19 14:00:01,15.731979199999998,0.0001129,53.214,201.3969,123.7168,321.2037,-0.00023503,-0.0003347,0.0,0 STARLINK-4667,1 53707U 22107H   22262.58334491 -.00033470  00000-0 -23503-3 0  9990,2 53707  53.2140 201.3969 0001129 123.7168 321.2037 15.73197920  2408,6727.901,91.533,350.526,349.00699999999995,0.0
53707.0,STARLINK-4667,PAYLOAD,2022-09-19 22:00:00,15.73204503,0.0001185,53.214,199.7475,124.4139,49.4163,0.00029832,0.00041462,0.0,0 STARLINK-4667,1 53707U 22107H   22262.91667824  .00041462  00000-0  29832-3 0  9995,2 53707  53.2140 199.7475 0001185 124.4139  49.4163 15.73204503  1301,6727.882,91.533,350.545,348.95,0.0
53707.0,STARLINK-4667,PAYLOAD,2022-09-20 14:00:01,15.73150586,0.0001189,53.2134,196.4481,129.1544,222.5804,0.0003294,0.00045763,0.0,0 STARLINK-4667,1 53707U 22107H   22263.58334491  .00045763  00000-0  32940-3 0  9992,2 53707  53.2134 196.4481 0001189 129.1544 222.5804 15.73150586  2567,6728.036,91.536,350.701,349.101,0.0
53707.0,STARLINK-4667,PAYLOAD,2022-09-20 22:00:01,15.73227468,0.0001230999999999,53.2137,194.7988,128.4121,312.2652,-0.00021464,-0.00030669,0.0,0 STARLINK-4667,1 53707U 22107H   22263.91668981 -.00030669  00000-0 -21464-3 0  9993,2 53707  53.2137 194.7988 0001231 128.4121 312.2652 15.73227468  1307,6727.816999999999,91.532,350.51,348.85400000000016,0.0
53707.0,STARLINK-4667,PAYLOAD,2022-09-21 06:00:00,15.73147463,0.0001153,53.2139,193.151,116.0309,53.5366,0.00065287,0.00091805,0.0,0 STARLINK-4667,1 53707U 22107H   22264.25001157  .00091805  00000-0  65287-3 0  9995,2 53707  53.2139 193.1510 0001153 116.0309  53.5366 15.73147463  2660,6728.045,91.536,350.686,349.134,0.0
53707.0,STARLINK-4667,PAYLOAD,2022-09-21 14:00:01,15.73184264,0.0001416999999999,53.2142,191.4995,120.9827,137.4921,-7.2206e-05,-0.00010734,0.0,0 STARLINK-4667,1 53707U 22107H   22264.58334491 -.00010734  00000-0 -72206-4 0  9995,2 53707  53.2142 191.4995 0001417 120.9827 137.4921 15.73184264  2719,6727.94,91.534,350.7580000000001,348.852,0.0
53707.0,STARLINK-4667,PAYLOAD,2022-09-21 22:00:00,15.73191869,0.0001524,53.2142,189.8503,119.4008,227.9636,0.00011504,0.00015549,0.0,0 STARLINK-4667,1 53707U 22107H   22264.91667824  .00015549  00000-0  11504-3 0  9991,2 53707  53.2142 189.8503 0001524 119.4008 227.9636 15.73191869  1309,6727.918000000002,91.534,350.809,348.7580000000001,0.0
53707.0,STARLINK-4667,PAYLOAD,2022-09-22 06:00:00,15.73208076,0.0001346,53.2137,188.2024,114.1394,322.1512,0.00018664,0.00025663,0.0,0 STARLINK-4667,1 53707U 22107H   22265.25001157  .00025663  00000-0  18664-3 0  9992,2 53707  53.2137 188.2024 0001346 114.1394 322.1512 15.73208076  2824,6727.871999999999,91.533,350.64300000000014,348.832,0.0
53707.0,STARLINK-4667,PAYLOAD,2022-09-22 14:00:01,15.73160817,0.0001312,53.2137,186.5508,129.2025,36.0447,0.00043898,0.00061335,0.0,0 STARLINK-4667,1 53707U 22107H   22265.58334491  .00061335  00000-0  43898-3 0  9991,2 53707  53.2137 186.5508 0001312 129.2025  36.0447 15.73160817  1303,6728.007,91.535,350.755,348.98900000000015,0.0
